[{"OBJECT_NAME":"STARLINK-3132","OBJECT_ID":"2021-104BB","EPOCH":"2026-03-09T17:23:47.100480","MEAN_MOTION":15.08833424,"ECCENTRICITY":0.00013012,"INCLINATION":53.2176,"RA_OF_ASC_NODE":218.9754,"ARG_OF_PERICENTER":96.0867,"MEAN_ANOMALY":264.0274,"EPHEMERIS_TYPE":0,"CLASSIFICATION_TYPE":"U","NORAD_CAT_ID":49457,"ELEMENT_SET_NO":999,"REV_AT_EPOCH":23878,"BSTAR":1.987576e-6,"MEAN_MOTION_DOT":-2.56e-6,"MEAN_MOTION_DDOT":0},{"OBJECT_NAME":"CAPELLA-14 (ACADIA-4)","OBJECT_ID":"2024-066C","EPOCH":"2026-03-09T23:09:20.349504","MEAN_MOTION":15.10553849,"ECCENTRICITY":0.00038755,"INCLINATION":45.6044,"RA_OF_ASC_NODE":58.5628,"ARG_OF_PERICENTER":114.4902,"MEAN_ANOMALY":245.6389,"EPHEMERIS_TYPE":0,"CLASSIFICATION_TYPE":"U","NORAD_CAT_ID":59444,"ELEMENT_SET_NO":999,"REV_AT_EPOCH":9746,"BSTAR":0.0014196844,"MEAN_MOTION_DOT":0.00023618,"MEAN_MOTION_DDOT":0}]
